{
    "links": {
        "self": "http://www.neowsapp.com/rest/v1/neo/3648980?api_key=iIulBulltgU6a56xZRHN4H3l9WmuAYTsLGpBGhQ2"
    },
    "id": "3648980",
    "neo_reference_id": "3648980",
    "name": "(2013 TQ12)",
    "designation": "2013 TQ12",
    "nasa_jpl_url": "http://ssd.jpl.nasa.gov/sbdb.cgi?sstr=3648980",
    "absolute_magnitude_h": 23.7,
    "estimated_diameter": {
        "kilometers": {
            "estimated_diameter_min": 0.0483676488,
            "estimated_diameter_max": 0.1081533507
        },
        "meters": {
            "estimated_diameter_min": 48.3676488219,
            "estimated_diameter_max": 108.1533506775
        },
        "miles": {
            "estimated_diameter_min": 0.0300542543,
            "estimated_diameter_max": 0.0672033557
        },
        "feet": {
            "estimated_diameter_min": 158.6865169607,
            "estimated_diameter_max": 354.8338390368
        }
    },
    "is_potentially_hazardous_asteroid": false,
    "close_approach_data": [
        {
            "close_approach_date": "1933-03-31",
            "close_approach_date_full": "1933-Mar-31 11:44",
            "epoch_date_close_approach": -1159877760000,
            "relative_velocity": {
                "kilometers_per_second": "27.3769677821",
                "kilometers_per_hour": "98557.0840155665",
                "miles_per_hour": "61239.5392317835"
            },
            "miss_distance": {
                "astronomical": "0.4644208476",
                "lunar": "180.6597097164",
                "kilometers": "69476369.584554612",
                "miles": "43170614.2118611656"
            },
            "orbiting_body": "Earth"
        },
        {
            "close_approach_date": "2011-10-17",
            "close_approach_date_full": "2011-Oct-17 01:55",
            "epoch_date_close_approach": 1318816500000,
            "relative_velocity": {
                "kilometers_per_second": "27.7626121989",
                "kilometers_per_hour": "99945.4039158704",
                "miles_per_hour": "62102.1872276141"
            },
            "miss_distance": {
                "astronomical": "0.4748160768",
                "lunar": "184.7034538752",
                "kilometers": "71031473.731036416",
                "miles": "44136911.1207019008"
            },
            "orbiting_body": "Earth"
        },
        {
            "close_approach_date": "2013-09-13",
            "close_approach_date_full": "2013-Sep-13 12:05",
            "epoch_date_close_approach": 1379073900000,
            "relative_velocity": {
                "kilometers_per_second": "11.4060627001",
                "kilometers_per_hour": "41061.8257203769",
                "miles_per_hour": "25514.2216538642"
            },
            "miss_distance": {
                "astronomical": "0.0987991983",
                "lunar": "38.4328881387",
                "kilometers": "14780149.623387621",
                "miles": "9183959.1101303298"
            },
            "orbiting_body": "Earth"
        }
    ],
    "orbital_data": {
        "orbit_id": "9",
        "orbit_determination_date": "2017-04-06 08:44:17",
        "first_observation_date": "2013-10-05",
        "last_observation_date": "2013-10-12",
        "data_arc_in_days": 7,
        "observations_used": 21,
        "orbit_uncertainty": "8",
        "minimum_orbit_intersection": ".0334192",
        "jupiter_tisserand_invariant": "4.322",
        "epoch_osculation": "2456571.5",
        "eccentricity": ".488876811479075",
        "semi_major_axis": "1.538521649411702",
        "inclination": "7.612198444060506",
        "ascending_node_longitude": "12.56605270953697",
        "orbital_period": "697.0338105128492",
        "perihelion_distance": ".7863740910557818",
        "perihelion_argument": "274.6580095733573",
        "aphelion_distance": "2.290669207767622",
        "perihelion_time": "2456502.133392449522",
        "mean_anomaly": "35.82606516576106",
        "mean_motion": ".5164742291842724",
        "equinox": "J2000",
        "orbit_class": {
            "orbit_class_type": "APO",
            "orbit_class_description": "Near-Earth asteroid orbits which cross the Earth’s orbit similar to that of 1862 Apollo",
            "orbit_class_range": "a (semi-major axis) > 1.0 AU; q (perihelion) < 1.017 AU"
        }
    },
    "is_sentry_object": false
}